{"type": "FeatureCollection", "features": [ {"type": "Feature", "properties": {"norad_id": 43010, "name": "FENGYUN 3D", "group": "weather", "lat": -59.149969269814484, "lon": -17.570171212565764, "alt_km": 834.5384164457582, "timestamp": "2025-12-26T12:57:38.909133+00:00", "meta": {"OBJECT_NAME": "FENGYUN 3D", "OBJECT_ID": "2017-072A", "EPOCH": "2025-12-26T06:28:44.226912", "MEAN_MOTION": 14.19687899, "ECCENTRICITY": 0.00015975, "INCLINATION": 98.9916, "RA_OF_ASC_NODE": 326.7838, "ARG_OF_PERICENTER": 144.699, "MEAN_ANOMALY": 215.4291, "EPHEMERIS_TYPE": 0, "CLASSIFICATION_TYPE": "U", "NORAD_CAT_ID": 43010, "ELEMENT_SET_NO": 999, "REV_AT_EPOCH": 42045, "BSTAR": 0.00013691751, "MEAN_MOTION_DOT": 2.43e-06, "MEAN_MOTION_DDOT": 0}, "tle": {"line1": "1 43010U 17072A   25360.26995633  .00000243  00000+0  13692-3 0  9996", "line2": "2 43010  98.9916 326.7838 0001597 144.6990 215.4291 14.19687899420455"}}, "geometry": {"type": "Point", "coordinates": [-17.570171212565764, -59.149969269814484]}}, {"type": "Feature", "properties": {"norad_id": 43013, "name": "NOAA 20 (JPSS-1)", "group": "weather", "lat": 79.32375347209103, "lon": -118.20275706962502, "alt_km": 818.1353115268766, "timestamp": "2025-12-26T12:57:38.909144+00:00", "meta": {"OBJECT_NAME": "NOAA 20 (JPSS-1)", "OBJECT_ID": "2017-073A", "EPOCH": "2025-12-26T05:48:02.382336", "MEAN_MOTION": 14.1952933, "ECCENTRICITY": 0.00020626, "INCLINATION": 98.7616, "RA_OF_ASC_NODE": 296.3918, "ARG_OF_PERICENTER": 67.9862, "MEAN_ANOMALY": 292.1533, "EPHEMERIS_TYPE": 0, "CLASSIFICATION_TYPE": "U", "NORAD_CAT_ID": 43013, "ELEMENT_SET_NO": 999, "REV_AT_EPOCH": 41993, "BSTAR": 6.9998492e-05, "MEAN_MOTION_DOT": 1.04e-06, "MEAN_MOTION_DDOT": 0}, "tle": {"line1": "1 43013U 17073A   25360.24169424  .00000104  00000+0  69998-4 0  9996", "line2": "2 43013  98.7616 296.3918 0002062  67.9862 292.1533 14.19529330419934"}}, "geometry": {"type": "Point", "coordinates": [-118.20275706962502, 79.32375347209103]}}, {"type": "Feature", "properties": {"norad_id": 43226, "name": "GOES 17", "group": "weather", "lat": 0.4548827417908873, "lon": -159.8441978272814, "alt_km": 35783.7474377992, "timestamp": "2025-12-26T12:57:38.909157+00:00", "meta": {"OBJECT_NAME": "GOES 17", "OBJECT_ID": "2018-022A", "EPOCH": "2025-12-26T06:07:06.879072", "MEAN_MOTION": 1.00271617, "ECCENTRICITY": 0.00031687, "INCLINATION": 0.4905, "RA_OF_ASC_NODE": 89.0226, "ARG_OF_PERICENTER": 191.1301, "MEAN_ANOMALY": 177.1305, "EPHEMERIS_TYPE": 0, "CLASSIFICATION_TYPE": "U", "NORAD_CAT_ID": 43226, "ELEMENT_SET_NO": 999, "REV_AT_EPOCH": 2869, "BSTAR": 0, "MEAN_MOTION_DOT": -1.61e-06, "MEAN_MOTION_DDOT": 0}, "tle": {"line1": "1 43226U 18022A   25360.25494073 -.00000161  00000+0  00000+0 0  9997", "line2": "2 43226   0.4905  89.0226 0003168 191.1301 177.1305  1.00271617 28692"}}, "geometry": {"type": "Point", "coordinates": [-159.8441978272814, 0.4548827417908873]}}, {"type": "Feature", "properties": {"norad_id": 43491, "name": "FENGYUN 2H", "group": "weather", "lat": -2.4619044945284982, "lon": 9.061344713460022, "alt_km": 35792.10620050033, "timestamp": "2025-12-26T12:57:38.909169+00:00", "meta": {"OBJECT_NAME": "FENGYUN 2H", "OBJECT_ID": "2018-050A", "EPOCH": "2025-12-26T03:07:59.935584", "MEAN_MOTION": 1.00270255, "ECCENTRICITY": 0.00024336, "INCLINATION": 2.5832, "RA_OF_ASC_NODE": 81.1875, "ARG_OF_PERICENTER": 166.8758, "MEAN_ANOMALY": 333.148, "EPHEMERIS_TYPE": 0, "CLASSIFICATION_TYPE": "U", "NORAD_CAT_ID": 43491, "ELEMENT_SET_NO": 999, "REV_AT_EPOCH": 2770, "BSTAR": 0, "MEAN_MOTION_DOT": -1.08e-06, "MEAN_MOTION_DDOT": 0}, "tle": {"line1": "1 43491U 18050A   25360.13055481 -.00000108  00000+0  00000+0 0  9996", "line2": "2 43491   2.5832  81.1875 0002433 166.8758 333.1480  1.00270255 27706"}}, "geometry": {"type": "Point", "coordinates": [9.061344713460022, -2.4619044945284982]}}, {"type": "Feature", "properties": {"norad_id": 43689, "name": "METOP-C", "group": "weather", "lat": -37.55135366042211, "lon": 64.8497568845558, "alt_km": 826.4039413446753, "timestamp": "2025-12-26T12:57:38.909189+00:00", "meta": {"OBJECT_NAME": "METOP-C", "OBJECT_ID": "2018-087A", "EPOCH": "2025-12-26T06:22:55.964064", "MEAN_MOTION": 14.21489459, "ECCENTRICITY": 5.687e-05, "INCLINATION": 98.6911, "RA_OF_ASC_NODE": 57.827, "ARG_OF_PERICENTER": 13.4753, "MEAN_ANOMALY": 346.644, "EPHEMERIS_TYPE": 0, "CLASSIFICATION_TYPE": "U", "NORAD_CAT_ID": 43689, "ELEMENT_SET_NO": 999, "REV_AT_EPOCH": 37026, "BSTAR": 8.3278108e-05, "MEAN_MOTION_DOT": 1.39e-06, "MEAN_MOTION_DDOT": 0}, "tle": {"line1": "1 43689U 18087A   25360.26592551  .00000139  00000+0  83278-4 0  9999", "line2": "2 43689  98.6911  57.8270 0000568  13.4753 346.6440 14.21489459370269"}}, "geometry": {"type": "Point", "coordinates": [64.8497568845558, -37.55135366042211]}}, {"type": "Feature", "properties": {"norad_id": 43823, "name": "GEO-KOMPSAT-2A", "group": "weather", "lat": -0.024373438766926464, "lon": 57.91791654562665, "alt_km": 35786.1210792828, "timestamp": "2025-12-26T12:57:38.909204+00:00", "meta": {"OBJECT_NAME": "GEO-KOMPSAT-2A", "OBJECT_ID": "2018-100A", "EPOCH": "2025-12-25T12:13:38.614080", "MEAN_MOTION": 1.00268534, "ECCENTRICITY": 2.51e-05, "INCLINATION": 0.0434, "RA_OF_ASC_NODE": 172.7377, "ARG_OF_PERICENTER": 259.9479, "MEAN_ANOMALY": 333.2359, "EPHEMERIS_TYPE": 0, "CLASSIFICATION_TYPE": "U", "NORAD_CAT_ID": 43823, "ELEMENT_SET_NO": 999, "REV_AT_EPOCH": 2588, "BSTAR": 0, "MEAN_MOTION_DOT": -3.22e-06, "MEAN_MOTION_DDOT": 0}, "tle": {"line1": "1 43823U 18100A   25359.50947470 -.00000322  00000+0  00000+0 0  9996", "line2": "2 43823   0.0434 172.7377 0000251 259.9479 333.2359  1.00268534 25880"}}, "geometry": {"type": "Point", "coordinates": [57.91791654562665, -0.024373438766926464]}}, {"type": "Feature", "properties": {"norad_id": 44387, "name": "METEOR-M2 2", "group": "weather", "lat": 4.160427285839616, "lon": 161.09155586520856, "alt_km": 812.4467905591846, "timestamp": "2025-12-26T12:57:38.909216+00:00", "meta": {"OBJECT_NAME": "METEOR-M2 2", "OBJECT_ID": "2019-038A", "EPOCH": "2025-12-26T05:23:41.415360", "MEAN_MOTION": 14.24297774, "ECCENTRICITY": 0.00018038, "INCLINATION": 98.899, "RA_OF_ASC_NODE": 340.1194, "ARG_OF_PERICENTER": 122.5776, "MEAN_ANOMALY": 237.5577, "EPHEMERIS_TYPE": 0, "CLASSIFICATION_TYPE": "U", "NORAD_CAT_ID": 44387, "ELEMENT_SET_NO": 999, "REV_AT_EPOCH": 33667, "BSTAR": 0.00021212354, "MEAN_MOTION_DOT": 4.44e-06, "MEAN_MOTION_DDOT": 0}, "tle": {"line1": "1 44387U 19038A   25360.22478490  .00000444  00000+0  21212-3 0  9991", "line2": "2 44387  98.8990 340.1194 0001803 122.5776 237.5577 14.24297774336673"}}, "geometry": {"type": "Point", "coordinates": [161.09155586520856, 4.160427285839616]}}, {"type": "Feature", "properties": {"norad_id": 47719, "name": "ARKTIKA-M 1", "group": "weather", "lat": 12.596443665128104, "lon": 88.64540806080072, "alt_km": 9333.361017342675, "timestamp": "2025-12-26T12:57:38.909229+00:00", "meta": {"OBJECT_NAME": "ARKTIKA-M 1", "OBJECT_ID": "2021-016A", "EPOCH": "2025-12-26T00:48:12.401568", "MEAN_MOTION": 2.00630537, "ECCENTRICITY": 0.72107999, "INCLINATION": 63.1768, "RA_OF_ASC_NODE": 82.1795, "ARG_OF_PERICENTER": 269.1717, "MEAN_ANOMALY": 15.5344, "EPHEMERIS_TYPE": 0, "CLASSIFICATION_TYPE": "U", "NORAD_CAT_ID": 47719, "ELEMENT_SET_NO": 999, "REV_AT_EPOCH": 3531, "BSTAR": 0, "MEAN_MOTION_DOT": -4.1e-07, "MEAN_MOTION_DDOT": 0}, "tle": {"line1": "1 47719U 21016A   25360.03347687 -.00000041  00000+0  00000+0 0  9996", "line2": "2 47719  63.1768  82.1795 7210799 269.1717  15.5344  2.00630537 35311"}}, "geometry": {"type": "Point", "coordinates": [88.64540806080072, 12.596443665128104]}}, {"type": "Feature", "properties": {"norad_id": 49008, "name": "FENGYUN 3E", "group": "weather", "lat": -79.52522958254364, "lon": 57.28828558995924, "alt_km": 833.0672622723669, "timestamp": "2025-12-26T12:57:38.909241+00:00", "meta": {"OBJECT_NAME": "FENGYUN 3E", "OBJECT_ID": "2021-062A", "EPOCH": "2025-12-26T06:35:31.537248", "MEAN_MOTION": 14.19882749, "ECCENTRICITY": 9.95e-05, "INCLINATION": 98.748, "RA_OF_ASC_NODE": 0.6353, "ARG_OF_PERICENTER": 186.809, "MEAN_ANOMALY": 173.3073, "EPHEMERIS_TYPE": 0, "CLASSIFICATION_TYPE": "U", "NORAD_CAT_ID": 49008, "ELEMENT_SET_NO": 999, "REV_AT_EPOCH": 23204, "BSTAR": 0.0002064012, "MEAN_MOTION_DOT": 3.94e-06, "MEAN_MOTION_DDOT": 0}, "tle": {"line1": "1 49008U 21062A   25360.27467057  .00000394  00000+0  20640-3 0  9996", "line2": "2 49008  98.7480   0.6353 0000995 186.8090 173.3073 14.19882749232049"}}, "geometry": {"type": "Point", "coordinates": [57.28828558995924, -79.52522958254364]}}, {"type": "Feature", "properties": {"norad_id": 51850, "name": "GOES 18", "group": "weather", "lat": 0.01384157318810288, "lon": 152.68317943348242, "alt_km": 35787.98135069141, "timestamp": "2025-12-26T12:57:38.909282+00:00", "meta": {"OBJECT_NAME": "GOES 18", "OBJECT_ID": "2022-021A", "EPOCH": "2025-12-26T05:40:52.939776", "MEAN_MOTION": 1.00271493, "ECCENTRICITY": 4.704e-05, "INCLINATION": 0.0396, "RA_OF_ASC_NODE": 175.3212, "ARG_OF_PERICENTER": 136.205, "MEAN_ANOMALY": 91.6758, "EPHEMERIS_TYPE": 0, "CLASSIFICATION_TYPE": "U", "NORAD_CAT_ID": 51850, "ELEMENT_SET_NO": 999, "REV_AT_EPOCH": 485, "BSTAR": 0, "MEAN_MOTION_DOT": 1.19e-06, "MEAN_MOTION_DDOT": 0}, "tle": {"line1": "1 51850U 22021A   25360.23672384  .00000119  00000+0  00000+0 0  9996", "line2": "2 51850   0.0396 175.3212 0000470 136.2050  91.6758  1.00271493  4858"}}, "geometry": {"type": "Point", "coordinates": [152.68317943348242, 0.01384157318810288]}}]}